STARLINK-2722           
1 48472U 21040AW  26068.61332830  .00013092  00000+0  85362-3 0  9991
2 48472  53.0609 191.8446 0000864  96.1910 263.9178 15.08204788266471
LEMUR-2-SIERRINI        
1 60579U 24149DR  26068.80891719  .00014386  00000+0  92040-3 0  9991
2 60579  97.6873 151.1225 0006580 147.8458 212.3173 15.08682764 85461
